NORAD_CAT_ID,OBJECT_NAME,OBJECT_TYPE,EPOCH,MEAN_MOTION,ECCENTRICITY,INCLINATION,RA_OF_ASC_NODE,ARG_OF_PERICENTER,MEAN_ANOMALY,BSTAR,MEAN_MOTION_DOT,MEAN_MOTION_DDOT,TLE_LINE0,TLE_LINE1,TLE_LINE2,SEMIMAJOR_AXIS,PERIOD,APOGEE,PERIGEE,DECAYED
53531.0,STARLINK-4487,PAYLOAD,2024-02-28 11:16:02,15.08848174,0.0001523,53.2149,157.1008,71.4503,288.6655,0.00045554,6.971e-05,0.0,0 STARLINK-4487,1 53531U 22101E   24059.46946970  .00006971  00000-0  45554-3 0  9997,2 53531  53.2149 157.1008 0001523  71.4503 288.6655 15.08848174 84419,6917.855,95.437,540.774,538.667,0.0
53531.0,STARLINK-4487,PAYLOAD,2024-02-28 12:51:25,15.08847801,0.0001465,53.2146,156.8025,76.63,283.4856,0.00043666,6.67e-05,0.0,0 STARLINK-4487,1 53531U 22101E   24059.53570927  .00006670  00000-0  43666-3 0  9998,2 53531  53.2146 156.8025 0001465  76.6300 283.4856 15.08847801 84421,6917.857,95.437,540.735,538.708,0.0
53531.0,STARLINK-4487,PAYLOAD,2024-02-29 12:42:12,15.08850343,0.0001493,53.2148,152.3412,80.6632,279.4528,0.00027913,4.158e-05,0.0,0 STARLINK-4487,1 53531U 22101E   24060.52930708  .00004158  00000-0  27913-3 0  9992,2 53531  53.2148 152.3412 0001493  80.6632 279.4528 15.08850343 84570,6917.849,95.437,540.747,538.681,0.0
53531.0,STARLINK-4487,PAYLOAD,2024-02-29 15:52:58,15.0885397,0.0001483,53.2148,151.7461,79.9922,280.1237,0.0003748,5.684e-05,0.0,0 STARLINK-4487,1 53531U 22101E   24060.66178551  .00005684  00000-0  37480-3 0  9992,2 53531  53.2148 151.7461 0001483  79.9922 280.1237 15.08853970 84596,6917.838,95.437,540.729,538.677,0.0
53531.0,STARLINK-4487,PAYLOAD,2024-03-01 12:32:59,15.08845741,0.0001359,53.2148,147.8807,81.7942,278.3204,0.00020627,2.997e-05,0.0,0 STARLINK-4487,1 53531U 22101E   24061.52290808  .00002997  00000-0  20627-3 0  9997,2 53531  53.2148 147.8807 0001359  81.7942 278.3204 15.08845741 84726,6917.863,95.437,540.668,538.788,0.0
53531.0,STARLINK-4487,PAYLOAD,2024-03-02 12:23:45,15.08853717,0.0001514,53.2158,143.4219,87.0412,273.0753,0.00035523,5.372e-05,0.0,0 STARLINK-4487,1 53531U 22101E   24062.51650377  .00005372  00000-0  35523-3 0  9999,2 53531  53.2158 143.4219 0001514  87.0412 273.0753 15.08853717 84879,6917.838,95.437,540.751,538.656,0.0
53531.0,STARLINK-4487,PAYLOAD,2024-03-03 10:39:10,15.08840889,0.0001644,53.2166,139.2611,106.8023,253.3149,3.4354e-05,2.59e-06,0.0,0 STARLINK-4487,1 53531U 22101E   24063.44386666  .00000259  00000-0  34354-4 0  9990,2 53531  53.2166 139.2611 0001644 106.8023 253.3149 15.08840889 85012,6917.878,95.437,540.88,538.605,0.0
53531.0,STARLINK-4487,PAYLOAD,2024-03-03 13:49:56,15.08839517,0.0001577,53.2169,138.6627,91.7872,268.33,2.1751e-05,5.8e-07,0.0,0 STARLINK-4487,1 53531U 22101E   24063.57634666  .00000058  00000-0  21751-4 0  9994,2 53531  53.2169 138.6627 0001577  91.7872 268.3300 15.08839517 85037,6917.882,95.438,540.838,538.656,0.0
53531.0,STARLINK-4487,PAYLOAD,2024-03-04 12:05:19,15.08858437,0.0001593,53.2159,134.5005,71.059,289.0575,0.00051835,7.975e-05,0.0,0 STARLINK-4487,1 53531U 22101E   24064.50370233  .00007975  00000-0  51835-3 0  9995,2 53531  53.2159 134.5005 0001593  71.0590 289.0575 15.08858437 85178,6917.824,95.436,540.791,538.587,0.0
53531.0,STARLINK-4487,PAYLOAD,2024-03-04 21:37:38,15.08869344,0.0001589,53.2161,132.7166,80.0603,280.0568,0.00067171,0.00010427,0.0,0 STARLINK-4487,1 53531U 22101E   24064.90113480  .00010427  00000-0  67171-3 0  9994,2 53531  53.2161 132.7166 0001589  80.0603 280.0568 15.08869344 85238,6917.791,95.436,540.755,538.556,0.0
53531.0,STARLINK-4487,PAYLOAD,2024-03-05 03:59:11,15.08824952,0.0002172,53.2155,131.5261,84.2685,275.8555,-0.00062789,-0.00010263,0.0,0 STARLINK-4487,1 53531U 22101E   24065.16610635 -.00010263  00000-0 -62789-3 0  9997,2 53531  53.2155 131.5261 0002172  84.2685 275.8555 15.08824952 85277,6917.926,95.439,541.294,538.289,0.0
53531.0,STARLINK-4487,PAYLOAD,2024-03-05 11:56:07,15.08822037,0.0002037,53.2156,130.0406,87.0856,273.0369,-0.00051391,-8.454e-05,0.0,0 STARLINK-4487,1 53531U 22101E   24065.49730771 -.00008454  00000-0 -51391-3 0  9993,2 53531  53.2156 130.0406 0002037  87.0856 273.0369 15.08822037 85325,6917.935,95.439,541.209,538.391,0.0
53531.0,STARLINK-4487,PAYLOAD,2024-03-06 03:49:59,15.08828782,0.0002134,53.2155,127.067,90.6116,269.5121,0.00094305,0.00014748,0.0,0 STARLINK-4487,1 53531U 22101E   24066.15971903  .00014748  00000-0  94305-3 0  9994,2 53531  53.2155 127.0670 0002134  90.6116 269.5121 15.08828782 85420,6917.915,95.438,541.256,538.303,0.0
53531.0,STARLINK-4487,PAYLOAD,2024-03-06 13:22:18,15.08847548,0.0002135,53.2156,125.2826,91.1597,268.964,0.0011893,0.00018694,0.0,0 STARLINK-4487,1 53531U 22101E   24066.55715851  .00018694  00000-0  11893-2 0  9990,2 53531  53.2156 125.2826 0002135  91.1597 268.9640 15.08847548 85480,6917.857,95.437,541.199,538.245,0.0
53531.0,STARLINK-4487,PAYLOAD,2024-03-07 03:40:46,15.08838437,0.0002267,53.2156,122.6039,91.1266,268.9986,0.00018115,2.596e-05,0.0,0 STARLINK-4487,1 53531U 22101E   24067.15332098  .00002596  00000-0  18115-3 0  9994,2 53531  53.2156 122.6039 0002267  91.1266 268.9986 15.08838437 85576,6917.885,95.438,541.318,538.182,0.0
53531.0,STARLINK-4487,PAYLOAD,2024-03-07 10:02:19,15.08837127,0.0001979,53.215,121.4141,94.2556,265.8662,0.00038437,5.834e-05,0.0,0 STARLINK-4487,1 53531U 22101E   24067.41828240  .00005834  00000-0  38437-3 0  9999,2 53531  53.2150 121.4141 0001979  94.2556 265.8662 15.08837127 85613,6917.889,95.438,541.123,538.385,0.0
53531.0,STARLINK-4487,PAYLOAD,2024-03-08 09:53:06,15.08847418,0.0002055,53.2154,116.9535,95.5217,264.601,0.00017188,2.449e-05,0.0,0 STARLINK-4487,1 53531U 22101E   24068.41187706  .00002449  00000-0  17188-3 0  9994,2 53531  53.2154 116.9535 0002055  95.5217 264.6010 15.08847418 85761,6917.858,95.437,541.144,538.301,0.0
53531.0,STARLINK-4487,PAYLOAD,2024-03-09 03:22:21,15.08836479,0.0002029,53.2158,113.6832,96.3968,263.7255,3.293e-05,2.36e-06,0.0,0 STARLINK-4487,1 53531U 22101E   24069.14052236  .00000236  00000-0  32930-4 0  9999,2 53531  53.2158 113.6832 0002029  96.3968 263.7255 15.08836479 85870,6917.891,95.438,541.16,538.353,0.0
53531.0,STARLINK-4487,PAYLOAD,2024-03-09 09:43:53,15.08839268,0.0002055,53.217,112.4941,98.0698,262.0527,7.2194e-05,8.61e-06,0.0,0 STARLINK-4487,1 53531U 22101E   24069.40548204  .00000861  00000-0  72194-4 0  9993,2 53531  53.2170 112.4941 0002055  98.0698 262.0527 15.08839268 85918,6917.883,95.438,541.169,538.326,0.0
53531.0,STARLINK-4487,PAYLOAD,2024-03-09 19:16:12,15.08838545,0.0001949,53.2164,110.7105,94.7985,265.323,5.2509e-05,5.48e-06,0.0,0 STARLINK-4487,1 53531U 22101E   24069.80292267  .00000548  00000-0  52509-4 0  9992,2 53531  53.2164 110.7105 0001949  94.7985 265.3230 15.08838545 85977,6917.885,95.438,541.098,538.402,0.0
53531.0,STARLINK-4487,PAYLOAD,2024-03-10 09:34:40,15.08844719,0.0001879,53.2162,108.0347,93.7835,266.3372,7.3265e-05,8.78e-06,0.0,0 STARLINK-4487,1 53531U 22101E   24070.39907841  .00000878  00000-0  73265-4 0  9997,2 53531  53.2162 108.0347 0001879  93.7835 266.3372 15.08844719 86067,6917.866,95.437,541.031,538.431,0.0
53531.0,STARLINK-4487,PAYLOAD,2024-03-10 19:06:59,15.08843692,0.000181,53.2156,106.2504,91.9348,268.1851,3.6272e-05,2.89e-06,0.0,0 STARLINK-4487,1 53531U 22101E   24070.79651865  .00000289  00000-0  36272-4 0  9996,2 53531  53.2156 106.2504 0001810  91.9348 268.1851 15.08843692 86127,6917.869,95.437,540.986,538.482,0.0
53531.0,STARLINK-4487,PAYLOAD,2024-03-11 03:03:55,15.08835638,0.0001871,53.2162,104.7638,94.3257,265.7949,8.7271e-05,1.101e-05,0.0,0 STARLINK-4487,1 53531U 22101E   24071.12772376  .00001101  00000-0  87271-4 0  9994,2 53531  53.2162 104.7638 0001871  94.3257 265.7949 15.08835638 86175,6917.894,95.438,541.053,538.464,0.0
53531.0,STARLINK-4487,PAYLOAD,2024-03-11 09:25:27,15.08841978,0.00019,53.2162,103.5746,93.9179,266.2031,8.1865e-05,1.015e-05,0.0,0 STARLINK-4487,1 53531U 22101E   24071.39268010  .00001015  00000-0  81865-4 0  9995,2 53531  53.2162 103.5746 0001900  93.9179 266.2031 15.08841978 86210,6917.874,95.437,541.054,538.425,0.0
53531.0,STARLINK-4487,PAYLOAD,2024-03-12 10:51:38,15.08837765,0.0001974,53.2166,98.8177,97.932,262.1896,3.908e-05,3.34e-06,0.0,0 STARLINK-4487,1 53531U 22101E   24072.45252486  .00000334  00000-0  39080-4 0  9998,2 53531  53.2166  98.8177 0001974  97.9320 262.1896 15.08837765 86371,6917.887,95.438,541.118,538.387,0.0
53531.0,STARLINK-4487,PAYLOAD,2024-03-12 18:48:33,15.08838358,0.0001833,53.2151,97.3288,88.682,271.4382,1.9931e-05,2.9e-07,0.0,0 STARLINK-4487,1 53531U 22101E   24072.78372539  .00000029  00000-0  19931-4 0  9990,2 53531  53.2151  97.3288 0001833  88.6820 271.4382 15.08838358 86426,6917.885,95.438,541.018,538.482,0.0
53531.0,STARLINK-4487,PAYLOAD,2024-03-13 01:10:06,15.08825712,0.0001893,53.2146,96.1387,91.7991,268.3218,0.0001949,2.814e-05,0.0,0 STARLINK-4487,1 53531U 22101E   24073.04868905  .00002814  00000-0  19490-3 0  9990,2 53531  53.2146  96.1387 0001893  91.7991 268.3218 15.08825712 86464,6917.924,95.438,541.099,538.479,0.0
53531.0,STARLINK-4487,PAYLOAD,2024-03-13 09:07:01,15.08842283,0.0001896,53.2157,94.6527,88.544,271.5769,3.7504e-05,3.09e-06,0.0,0 STARLINK-4487,1 53531U 22101E   24073.37988291  .00000309  00000-0  37504-4 0  9991,2 53531  53.2157  94.6527 0001896  88.5440 271.5769 15.08842283 86516,6917.873,95.437,541.05,538.427,0.0
53531.0,STARLINK-4487,PAYLOAD,2024-03-14 07:22:25,15.08844833,0.0001886,53.2163,90.4875,93.0356,267.0852,0.00010849,1.439e-05,0.0,0 STARLINK-4487,1 53531U 22101E   24074.30723869  .00001439  00000-0  10849-3 0  9990,2 53531  53.2163  90.4875 0001886  93.0356 267.0852 15.08844833 86650,6917.866,95.437,541.035,538.426,0.0
53531.0,STARLINK-4487,PAYLOAD,2024-03-14 10:33:11,15.08848489,0.0001797,53.2151,89.8938,86.18,273.9398,0.00013258,1.823e-05,0.0,0 STARLINK-4487,1 53531U 22101E   24074.43971567  .00001823  00000-0  13258-3 0  9998,2 53531  53.2151  89.8938 0001797  86.1800 273.9398 15.08848489 86671,6917.854,95.437,540.963,538.476,0.0
